[{"OBJECT_NAME":"STARLINK-31140","OBJECT_ID":"2024-011C","EPOCH":"2026-03-09T01:19:39.082944","MEAN_MOTION":15.30197835,"ECCENTRICITY":0.00010797,"INCLINATION":53.1621,"RA_OF_ASC_NODE":16.5875,"ARG_OF_PERICENTER":106.5079,"MEAN_ANOMALY":253.6041,"EPHEMERIS_TYPE":0,"CLASSIFICATION_TYPE":"U","NORAD_CAT_ID":58767,"ELEMENT_SET_NO":999,"REV_AT_EPOCH":12017,"BSTAR":3.9028293e-5,"MEAN_MOTION_DOT":7.97e-6,"MEAN_MOTION_DDOT":0},{"OBJECT_NAME":"KUIPER-00252","OBJECT_ID":"2025-301AA","EPOCH":"2026-03-09T22:00:01.999584","MEAN_MOTION":15.32961042,"ECCENTRICITY":0.00108625,"INCLINATION":51.8682,"RA_OF_ASC_NODE":64.6463,"ARG_OF_PERICENTER":55.9089,"MEAN_ANOMALY":330.8749,"EPHEMERIS_TYPE":0,"CLASSIFICATION_TYPE":"U","NORAD_CAT_ID":67157,"ELEMENT_SET_NO":999,"REV_AT_EPOCH":542,"BSTAR":-0.017504489,"MEAN_MOTION_DOT":-0.00529484,"MEAN_MOTION_DDOT":0}]
